{"type": "FeatureCollection", "features": [ {"type": "Feature", "properties": {"norad_id": 35018, "name": "COSMOS 2251 DEB", "group": "cosmos-2251-debris", "lat": -7.651203549581216, "lon": 114.62676029777259, "alt_km": 799.1962797479637, "timestamp": "2025-12-08T13:49:32.190018+00:00", "meta": {"OBJECT_NAME": "COSMOS 2251 DEB", "OBJECT_ID": "1993-036AGF", "EPOCH": "2025-12-07T02:44:20.338656", "MEAN_MOTION": 13.67099498, "ECCENTRICITY": 0.0348459, "INCLINATION": 73.9755, "RA_OF_ASC_NODE": 119.2461, "ARG_OF_PERICENTER": 29.6581, "MEAN_ANOMALY": 332.3799, "EPHEMERIS_TYPE": 0, "CLASSIFICATION_TYPE": "U", "NORAD_CAT_ID": 35018, "ELEMENT_SET_NO": 999, "REV_AT_EPOCH": 83109, "BSTAR": 0.0011552801, "MEAN_MOTION_DOT": 1.451e-05, "MEAN_MOTION_DDOT": 0}, "tle": {"line1": "1 35018U 93036AGF 25341.11412429  .00001451  00000+0  11553-2 0  9994", "line2": "2 35018  73.9755 119.2461 0348459  29.6581 332.3799 13.67099498831096"}}, "geometry": {"type": "Point", "coordinates": [114.62676029777259, -7.651203549581216]}}, {"type": "Feature", "properties": {"norad_id": 35020, "name": "COSMOS 2251 DEB", "group": "cosmos-2251-debris", "lat": -2.2468152364180525, "lon": -153.7195829878399, "alt_km": 634.8740486340594, "timestamp": "2025-12-08T13:49:32.190029+00:00", "meta": {"OBJECT_NAME": "COSMOS 2251 DEB", "OBJECT_ID": "1993-036AGH", "EPOCH": "2025-12-07T00:05:05.050752", "MEAN_MOTION": 14.62790798, "ECCENTRICITY": 0.00909018, "INCLINATION": 74.0461, "RA_OF_ASC_NODE": 209.9349, "ARG_OF_PERICENTER": 325.3145, "MEAN_ANOMALY": 34.2114, "EPHEMERIS_TYPE": 0, "CLASSIFICATION_TYPE": "U", "NORAD_CAT_ID": 35020, "ELEMENT_SET_NO": 999, "REV_AT_EPOCH": 88154, "BSTAR": 0.00028883353, "MEAN_MOTION_DOT": 1.53e-05, "MEAN_MOTION_DDOT": 0}, "tle": {"line1": "1 35020U 93036AGH 25341.00353068  .00001530  00000+0  28883-3 0  9991", "line2": "2 35020  74.0461 209.9349 0090901 325.3145  34.2114 14.62790798881546"}}, "geometry": {"type": "Point", "coordinates": [-153.7195829878399, -2.2468152364180525]}}, {"type": "Feature", "properties": {"norad_id": 35022, "name": "COSMOS 2251 DEB", "group": "cosmos-2251-debris", "lat": 69.95734304875685, "lon": 21.63494258302686, "alt_km": 685.2088974288108, "timestamp": "2025-12-08T13:49:32.190039+00:00", "meta": {"OBJECT_NAME": "COSMOS 2251 DEB", "OBJECT_ID": "1993-036AGK", "EPOCH": "2025-12-02T17:45:34.658208", "MEAN_MOTION": 14.60763876, "ECCENTRICITY": 0.00472905, "INCLINATION": 74.0262, "RA_OF_ASC_NODE": 341.0512, "ARG_OF_PERICENTER": 183.6288, "MEAN_ANOMALY": 176.4543, "EPHEMERIS_TYPE": 0, "CLASSIFICATION_TYPE": "U", "NORAD_CAT_ID": 35022, "ELEMENT_SET_NO": 999, "REV_AT_EPOCH": 58997, "BSTAR": 0.00056913021, "MEAN_MOTION_DOT": 2.791e-05, "MEAN_MOTION_DDOT": 0}, "tle": {"line1": "1 35022U 93036AGK 25336.73998447  .00002791  00000+0  56913-3 0  9998", "line2": "2 35022  74.0262 341.0512 0047290 183.6288 176.4543 14.60763876589975"}}, "geometry": {"type": "Point", "coordinates": [21.63494258302686, 69.95734304875685]}}, {"type": "Feature", "properties": {"norad_id": 35023, "name": "COSMOS 2251 DEB", "group": "cosmos-2251-debris", "lat": 70.35665171648579, "lon": -12.328819957929634, "alt_km": 598.1924947534926, "timestamp": "2025-12-08T13:49:32.190050+00:00", "meta": {"OBJECT_NAME": "COSMOS 2251 DEB", "OBJECT_ID": "1993-036AGL", "EPOCH": "2025-12-08T02:41:00.136032", "MEAN_MOTION": 14.9487588, "ECCENTRICITY": 0.0034242, "INCLINATION": 74.0379, "RA_OF_ASC_NODE": 221.9179, "ARG_OF_PERICENTER": 300.5938, "MEAN_ANOMALY": 183.4537, "EPHEMERIS_TYPE": 0, "CLASSIFICATION_TYPE": "U", "NORAD_CAT_ID": 35023, "ELEMENT_SET_NO": 999, "REV_AT_EPOCH": 88210, "BSTAR": 0.0020271261, "MEAN_MOTION_DOT": 0.00022391, "MEAN_MOTION_DDOT": 0}, "tle": {"line1": "1 35023U 93036AGL 25342.11180713  .00022391  00000+0  20271-2 0  9992", "line2": "2 35023  74.0379 221.9179 0034242 300.5938 183.4537 14.94875880882103"}}, "geometry": {"type": "Point", "coordinates": [-12.328819957929634, 70.35665171648579]}}, {"type": "Feature", "properties": {"norad_id": 35025, "name": "COSMOS 2251 DEB", "group": "cosmos-2251-debris", "lat": 28.25661558197471, "lon": -117.82290369712912, "alt_km": 708.7647853625876, "timestamp": "2025-12-08T13:49:32.190061+00:00", "meta": {"OBJECT_NAME": "COSMOS 2251 DEB", "OBJECT_ID": "1993-036AGN", "EPOCH": "2025-12-08T00:06:07.945632", "MEAN_MOTION": 14.72671039, "ECCENTRICITY": 0.0084943, "INCLINATION": 73.9388, "RA_OF_ASC_NODE": 72.2043, "ARG_OF_PERICENTER": 346.0566, "MEAN_ANOMALY": 13.8259, "EPHEMERIS_TYPE": 0, "CLASSIFICATION_TYPE": "U", "NORAD_CAT_ID": 35025, "ELEMENT_SET_NO": 999, "REV_AT_EPOCH": 88573, "BSTAR": 0.0005095957, "MEAN_MOTION_DOT": 3.404e-05, "MEAN_MOTION_DDOT": 0}, "tle": {"line1": "1 35025U 93036AGN 25342.00425863  .00003404  00000+0  50960-3 0  9993", "line2": "2 35025  73.9388  72.2043 0084943 346.0566  13.8259 14.72671039885730"}}, "geometry": {"type": "Point", "coordinates": [-117.82290369712912, 28.25661558197471]}}, {"type": "Feature", "properties": {"norad_id": 35026, "name": "COSMOS 2251 DEB", "group": "cosmos-2251-debris", "lat": -51.750208624321715, "lon": -54.61271613152109, "alt_km": 762.2083932287505, "timestamp": "2025-12-08T13:49:32.190071+00:00", "meta": {"OBJECT_NAME": "COSMOS 2251 DEB", "OBJECT_ID": "1993-036AGP", "EPOCH": "2025-12-07T08:39:39.055680", "MEAN_MOTION": 14.53618214, "ECCENTRICITY": 0.00822584, "INCLINATION": 74.0464, "RA_OF_ASC_NODE": 328.9566, "ARG_OF_PERICENTER": 83.9333, "MEAN_ANOMALY": 345.4639, "EPHEMERIS_TYPE": 0, "CLASSIFICATION_TYPE": "U", "NORAD_CAT_ID": 35026, "ELEMENT_SET_NO": 999, "REV_AT_EPOCH": 88065, "BSTAR": 0.00012037639, "MEAN_MOTION_DOT": 4.97e-06, "MEAN_MOTION_DDOT": 0}, "tle": {"line1": "1 35026U 93036AGP 25341.36086870  .00000497  00000+0  12038-3 0  9996", "line2": "2 35026  74.0464 328.9566 0082258  83.9333 345.4639 14.53618214880652"}}, "geometry": {"type": "Point", "coordinates": [-54.61271613152109, -51.750208624321715]}}, {"type": "Feature", "properties": {"norad_id": 35028, "name": "COSMOS 2251 DEB", "group": "cosmos-2251-debris", "lat": 13.170599338022294, "lon": -77.27726742516202, "alt_km": 660.1985324636016, "timestamp": "2025-12-08T13:49:32.190082+00:00", "meta": {"OBJECT_NAME": "COSMOS 2251 DEB", "OBJECT_ID": "1993-036AGR", "EPOCH": "2025-12-06T14:45:20.784960", "MEAN_MOTION": 14.56559763, "ECCENTRICITY": 0.00822588, "INCLINATION": 74.0381, "RA_OF_ASC_NODE": 282.6027, "ARG_OF_PERICENTER": 57.9846, "MEAN_ANOMALY": 116.6366, "EPHEMERIS_TYPE": 0, "CLASSIFICATION_TYPE": "U", "NORAD_CAT_ID": 35028, "ELEMENT_SET_NO": 999, "REV_AT_EPOCH": 88196, "BSTAR": 0.00020909724, "MEAN_MOTION_DOT": 9.44e-06, "MEAN_MOTION_DDOT": 0}, "tle": {"line1": "1 35028U 93036AGR 25340.61482390  .00000944  00000+0  20910-3 0  9997", "line2": "2 35028  74.0381 282.6027 0082258  57.9846 116.6366 14.56559763881966"}}, "geometry": {"type": "Point", "coordinates": [-77.27726742516202, 13.170599338022294]}}, {"type": "Feature", "properties": {"norad_id": 35031, "name": "COSMOS 2251 DEB", "group": "cosmos-2251-debris", "lat": -18.680481404098806, "lon": 92.48677487816762, "alt_km": 781.52449910817, "timestamp": "2025-12-08T13:49:32.190092+00:00", "meta": {"OBJECT_NAME": "COSMOS 2251 DEB", "OBJECT_ID": "1993-036AGU", "EPOCH": "2025-12-08T01:12:58.346784", "MEAN_MOTION": 14.3828457, "ECCENTRICITY": 0.00186501, "INCLINATION": 74.0383, "RA_OF_ASC_NODE": 267.9013, "ARG_OF_PERICENTER": 2.3478, "MEAN_ANOMALY": 357.776, "EPHEMERIS_TYPE": 0, "CLASSIFICATION_TYPE": "U", "NORAD_CAT_ID": 35031, "ELEMENT_SET_NO": 999, "REV_AT_EPOCH": 65216, "BSTAR": 0.00030715239, "MEAN_MOTION_DOT": 9.1e-06, "MEAN_MOTION_DDOT": 0}, "tle": {"line1": "1 35031U 93036AGU 25342.05067531  .00000910  00000+0  30715-3 0  9994", "line2": "2 35031  74.0383 267.9013 0018650   2.3478 357.7760 14.38284570652168"}}, "geometry": {"type": "Point", "coordinates": [92.48677487816762, -18.680481404098806]}}, {"type": "Feature", "properties": {"norad_id": 35032, "name": "COSMOS 2251 DEB", "group": "cosmos-2251-debris", "lat": 57.66619541797425, "lon": 168.05865634062857, "alt_km": 707.0691004236214, "timestamp": "2025-12-08T13:49:32.190103+00:00", "meta": {"OBJECT_NAME": "COSMOS 2251 DEB", "OBJECT_ID": "1993-036AGV", "EPOCH": "2025-12-08T03:40:28.997760", "MEAN_MOTION": 14.5866436, "ECCENTRICITY": 0.00686918, "INCLINATION": 73.8523, "RA_OF_ASC_NODE": 16.112, "ARG_OF_PERICENTER": 228.217, "MEAN_ANOMALY": 190.7582, "EPHEMERIS_TYPE": 0, "CLASSIFICATION_TYPE": "U", "NORAD_CAT_ID": 35032, "ELEMENT_SET_NO": 999, "REV_AT_EPOCH": 87607, "BSTAR": 0.0011565354, "MEAN_MOTION_DOT": 5.542e-05, "MEAN_MOTION_DDOT": 0}, "tle": {"line1": "1 35032U 93036AGV 25342.15311340  .00005542  00000+0  11565-2 0  9993", "line2": "2 35032  73.8523  16.1120 0068691 228.2170 190.7582 14.58664360876079"}}, "geometry": {"type": "Point", "coordinates": [168.05865634062857, 57.66619541797425]}}, {"type": "Feature", "properties": {"norad_id": 35033, "name": "COSMOS 2251 DEB", "group": "cosmos-2251-debris", "lat": -70.86094841869655, "lon": 60.04093466251333, "alt_km": 720.9408695640977, "timestamp": "2025-12-08T13:49:32.190113+00:00", "meta": {"OBJECT_NAME": "COSMOS 2251 DEB", "OBJECT_ID": "1993-036AGW", "EPOCH": "2025-12-07T20:05:05.429760", "MEAN_MOTION": 14.50894479, "ECCENTRICITY": 0.0014382, "INCLINATION": 74.0255, "RA_OF_ASC_NODE": 185.802, "ARG_OF_PERICENTER": 292.4939, "MEAN_ANOMALY": 67.4698, "EPHEMERIS_TYPE": 0, "CLASSIFICATION_TYPE": "U", "NORAD_CAT_ID": 35033, "ELEMENT_SET_NO": 999, "REV_AT_EPOCH": 65856, "BSTAR": 0.0010787428, "MEAN_MOTION_DOT": 4.237e-05, "MEAN_MOTION_DDOT": 0}, "tle": {"line1": "1 35033U 93036AGW 25341.83686840  .00004237  00000+0  10787-2 0  9993", "line2": "2 35033  74.0255 185.8020 0014382 292.4939  67.4698 14.50894479658560"}}, "geometry": {"type": "Point", "coordinates": [60.04093466251333, -70.86094841869655]}}]}